[{"OBJECT_NAME":"STARLINK-5141","OBJECT_ID":"2023-015BD","EPOCH":"2026-03-09T22:00:01.999584","MEAN_MOTION":15.09957718,"ECCENTRICITY":0.00018458,"INCLINATION":43.0002,"RA_OF_ASC_NODE":337.189,"ARG_OF_PERICENTER":263.2743,"MEAN_ANOMALY":130.7297,"EPHEMERIS_TYPE":0,"CLASSIFICATION_TYPE":"U","NORAD_CAT_ID":55500,"ELEMENT_SET_NO":999,"REV_AT_EPOCH":577,"BSTAR":0.00090556622,"MEAN_MOTION_DOT":0.00014764,"MEAN_MOTION_DDOT":0},{"OBJECT_NAME":"FENGYUN 1C DEB","OBJECT_ID":"1999-025DVA","EPOCH":"2026-03-08T04:27:49.439232","MEAN_MOTION":15.15496966,"ECCENTRICITY":0.00338373,"INCLINATION":98.8203,"RA_OF_ASC_NODE":206.4896,"ARG_OF_PERICENTER":4.2711,"MEAN_ANOMALY":355.88,"EPHEMERIS_TYPE":0,"CLASSIFICATION_TYPE":"U","NORAD_CAT_ID":36225,"ELEMENT_SET_NO":999,"REV_AT_EPOCH":68062,"BSTAR":0.0036229129,"MEAN_MOTION_DOT":0.00070122,"MEAN_MOTION_DDOT":0}]
